OBJECT_NAME,OBJECT_ID,EPOCH,MEAN_MOTION,ECCENTRICITY,INCLINATION,RA_OF_ASC_NODE,ARG_OF_PERICENTER,MEAN_ANOMALY,EPHEMERIS_TYPE,CLASSIFICATION_TYPE,NORAD_CAT_ID,ELEMENT_SET_NO,REV_AT_EPOCH,BSTAR,MEAN_MOTION_DOT,MEAN_MOTION_DDOT
ONEWEB-0189,2021-031H,2026-07-11T17:58:49.050912,13.14502069,.0002404,87.8972,284.8047,101.9100,258.2299,0,U,48217,999,25145,-.67411E-3,-.237E-5,0
ONEWEB-0196,2021-031J,2026-07-11T19:16:27.558336,13.14502361,.0002127,87.8972,284.8024,99.2157,260.9213,0,U,48218,999,25146,-.13266E-4,.8E-7,0
ONEWEB-0183,2021-031K,2026-07-11T18:39:55.251648,13.14502010,.0002008,87.8968,284.8053,93.2374,266.8986,0,U,48219,999,25155,.46358E-3,.185E-5,0
ONEWEB-0185,2021-031L,2026-07-11T19:17:34.853568,13.14503384,.0002278,87.8976,284.7954,89.4532,270.6859,0,U,48220,999,25148,-.85027E-4,-.19E-6,0
ONEWEB-0187,2021-031M,2026-07-11T18:48:51.159744,13.14502652,.0002139,87.8966,284.8142,101.7933,258.3437,0,U,48221,999,25149,.47448E-3,.189E-5,0
ONEWEB-0192,2021-031N,2026-07-11T18:05:40.182720,13.14502893,.0002152,87.8968,284.8095,101.4787,258.6584,0,U,48222,999,25140,-.59058E-3,-.206E-5,0
ONEWEB-0219,2021-031P,2026-07-11T19:25:34.428864,13.14503748,.0002174,87.8981,284.7902,97.0196,263.1181,0,U,48223,999,25161,-.17627E-3,-.53E-6,0
ONEWEB-0202,2021-031Q,2026-07-11T18:58:12.295776,13.14498033,.0002807,87.8984,284.8081,109.2422,250.9011,0,U,48224,999,25159,-.91098E-3,-.325E-5,0
ONEWEB-0204,2021-031R,2026-07-11T17:57:39.465216,13.14499305,.0001864,87.8973,284.8101,87.5526,272.5818,0,U,48225,999,25148,-.66229E-3,-.233E-5,0
ONEWEB-0205,2021-031S,2026-07-11T19:11:53.293632,13.14502414,.0002265,87.8974,284.7955,99.4917,260.6469,0,U,48226,999,25150,.82797E-4,.43E-6,0
ONEWEB-0206,2021-031T,2026-07-11T18:33:03.757824,13.14501519,.0001918,87.8971,284.8006,101.0827,259.0519,0,U,48227,999,25145,.1996E-3,.87E-6,0
ONEWEB-0182,2021-031U,2026-07-11T18:26:12.435936,13.14503748,.0001961,87.8968,284.8084,93.3337,266.8017,0,U,48228,999,25166,.28282E-4,.23E-6,0
ONEWEB-0186,2021-031V,2026-07-11T18:42:12.224160,13.14502661,.0002161,87.8979,284.7990,97.9339,262.2036,0,U,48229,999,25161,.45202E-3,.18E-5,0
ONEWEB-0181,2021-031W,2026-07-11T18:10:12.429984,13.14502546,.0002273,87.8959,284.8281,99.2598,260.8789,0,U,48230,999,25146,-.85354E-3,-.304E-5,0
ONEWEB-0188,2021-031X,2026-07-11T19:05:01.976928,13.14502215,.0002044,87.8966,284.8197,100.3508,259.7852,0,U,48231,999,25137,.24703E-3,.104E-5,0
ONEWEB-0220,2021-031Y,2026-07-11T18:12:29.683296,13.14503707,.0002308,87.8976,284.8042,93.6779,266.4614,0,U,48232,999,25163,-.34386E-3,-.115E-5,0
ONEWEB-0165,2021-031Z,2026-07-11T18:53:37.771008,13.14502546,.0002455,87.8971,284.8099,102.6803,257.4602,0,U,48233,999,25159,.24339E-3,.103E-5,0
ONEWEB-0199,2021-031AA,2026-07-11T18:30:47.288160,13.14501396,.0001914,87.8975,284.8003,99.9221,260.2125,0,U,48234,999,25149,.3202E-4,.25E-6,0
ONEWEB-0203,2021-031AB,2026-07-11T18:17:04.591680,13.14501276,.0002052,87.8974,284.8051,103.7894,256.3464,0,U,48235,999,25150,-.22244E-3,-.7E-6,0
ONEWEB-0197,2021-031AC,2026-07-11T19:29:56.812704,13.14501622,.000203,87.8966,284.7793,91.4968,268.6395,0,U,48236,999,25142,-.59531E-3,-.208E-5,0
ONEWEB-0194,2021-031AD,2026-07-11T19:00:27.943776,13.14503902,.0001841,87.8968,284.8068,105.9202,254.2130,0,U,48237,999,25159,.59302E-3,.233E-5,0
ONEWEB-0193,2021-031AE,2026-07-11T19:23:18.396384,13.14501820,.0001781,87.8972,284.7934,110.6357,249.4964,0,U,48238,999,25154,-.41492E-3,-.141E-5,0
ONEWEB-0191,2021-031AF,2026-07-11T17:49:40.488672,13.14506060,.0002001,87.8979,284.8070,94.7086,265.4272,0,U,48239,999,25139,-.68906E-3,-.243E-5,0
ONEWEB-0195,2021-031AG,2026-07-11T19:06:10.792800,13.14502878,.0002456,87.8976,284.7968,100.4030,259.7376,0,U,48240,999,25138,.17648E-3,.78E-6,0
ONEWEB-0201,2021-031AH,2026-07-11T16:59:38.143104,13.14502080,.0002113,87.8971,284.8284,91.0441,269.0930,0,U,48241,999,25160,.47216E-3,.188E-5,0
ONEWEB-0207,2021-031AJ,2026-07-11T18:20:28.999392,13.14502018,.0002128,87.8975,284.8035,90.8577,269.2796,0,U,48242,999,25152,-.97741E-3,-.35E-5,0
ONEWEB-0208,2021-031AK,2026-07-11T17:54:14.463072,13.14501763,.0002416,87.8970,284.8129,103.9196,256.2203,0,U,48243,999,25153,-.77511E-3,-.275E-5,0
ONEWEB-0200,2021-031AL,2026-07-11T18:51:20.573856,13.14502180,.000211,87.8982,284.7934,98.1067,262.0302,0,U,48244,999,25146,.54346E-3,.214E-5,0
ONEWEB-0217,2021-031AM,2026-07-11T19:14:10.258368,13.14502592,.0002314,87.8978,284.7950,101.5069,258.6320,0,U,48245,999,25141,.34577E-4,.26E-6,0
ONEWEB-0211,2021-045A,2026-07-11T16:03:51.441696,13.16196812,.0002579,87.8989,254.1991,107.2333,252.9080,0,U,48767,999,24766,-.2122E-3,-.68E-6,0
